{"type": "FeatureCollection", "features": [ {"type": "Feature", "properties": {"norad_id": 34833, "name": "IRIDIUM 33 DEB", "group": "iridium-33-debris", "lat": -57.08590574349142, "lon": 49.47394735311987, "alt_km": 740.6022202139666, "timestamp": "2025-12-03T06:58:43.626837+00:00", "meta": {"OBJECT_NAME": "IRIDIUM 33 DEB", "OBJECT_ID": "1997-051MH", "EPOCH": "2025-12-02T05:03:01.052640", "MEAN_MOTION": 14.52266696, "ECCENTRICITY": 0.00214845, "INCLINATION": 86.3939, "RA_OF_ASC_NODE": 55.5303, "ARG_OF_PERICENTER": 130.9995, "MEAN_ANOMALY": 287.1391, "EPHEMERIS_TYPE": 0, "CLASSIFICATION_TYPE": "U", "NORAD_CAT_ID": 34833, "ELEMENT_SET_NO": 999, "REV_AT_EPOCH": 87562, "BSTAR": 0.0010041369, "MEAN_MOTION_DOT": 4.11e-05, "MEAN_MOTION_DDOT": 0}, "tle": {"line1": "1 34833U 97051MH  25336.21042885  .00004110  00000+0  10041-2 0  9995", "line2": "2 34833  86.3939  55.5303 0021484 130.9995 287.1391 14.52266696875623"}}, "geometry": {"type": "Point", "coordinates": [49.47394735311987, -57.08590574349142]}}, {"type": "Feature", "properties": {"norad_id": 34870, "name": "IRIDIUM 33 DEB", "group": "iridium-33-debris", "lat": -1.4762434425865487, "lon": 138.5074329465773, "alt_km": 636.8287386626935, "timestamp": "2025-12-03T06:58:43.626847+00:00", "meta": {"OBJECT_NAME": "IRIDIUM 33 DEB", "OBJECT_ID": "1997-051MQ", "EPOCH": "2025-12-01T05:36:37.151712", "MEAN_MOTION": 14.76055324, "ECCENTRICITY": 0.0014764, "INCLINATION": 86.3102, "RA_OF_ASC_NODE": 319.3536, "ARG_OF_PERICENTER": 227.1347, "MEAN_ANOMALY": 190.7112, "EPHEMERIS_TYPE": 0, "CLASSIFICATION_TYPE": "U", "NORAD_CAT_ID": 34870, "ELEMENT_SET_NO": 999, "REV_AT_EPOCH": 88741, "BSTAR": 0.0019021, "MEAN_MOTION_DOT": 0.00013168, "MEAN_MOTION_DDOT": 0}, "tle": {"line1": "1 34870U 97051MQ  25335.23376333  .00013168  00000+0  19021-2 0  9995", "line2": "2 34870  86.3102 319.3536 0014764 227.1347 190.7112 14.76055324887418"}}, "geometry": {"type": "Point", "coordinates": [138.5074329465773, -1.4762434425865487]}}, {"type": "Feature", "properties": {"norad_id": 34896, "name": "IRIDIUM 33 DEB", "group": "iridium-33-debris", "lat": 4.979720426855637, "lon": -28.75560813338276, "alt_km": 683.0238350299987, "timestamp": "2025-12-03T06:58:43.626857+00:00", "meta": {"OBJECT_NAME": "IRIDIUM 33 DEB", "OBJECT_ID": "1997-051MY", "EPOCH": "2025-12-02T06:27:15.824160", "MEAN_MOTION": 14.66099888, "ECCENTRICITY": 0.0023761, "INCLINATION": 86.3285, "RA_OF_ASC_NODE": 331.3819, "ARG_OF_PERICENTER": 253.426, "MEAN_ANOMALY": 121.6385, "EPHEMERIS_TYPE": 0, "CLASSIFICATION_TYPE": "U", "NORAD_CAT_ID": 34896, "ELEMENT_SET_NO": 999, "REV_AT_EPOCH": 87466, "BSTAR": 0.0012182, "MEAN_MOTION_DOT": 6.738e-05, "MEAN_MOTION_DDOT": 0}, "tle": {"line1": "1 34896U 97051MY  25336.26893315  .00006738  00000+0  12182-2 0  9997", "line2": "2 34896  86.3285 331.3819 0023761 253.4260 121.6385 14.66099888874669"}}, "geometry": {"type": "Point", "coordinates": [-28.75560813338276, 4.979720426855637]}}, {"type": "Feature", "properties": {"norad_id": 34926, "name": "IRIDIUM 33 DEB", "group": "iridium-33-debris", "lat": 36.65041827032283, "lon": -170.23173474103913, "alt_km": 765.6056585196893, "timestamp": "2025-12-03T06:58:43.626867+00:00", "meta": {"OBJECT_NAME": "IRIDIUM 33 DEB", "OBJECT_ID": "1997-051NF", "EPOCH": "2025-12-02T20:58:36.077952", "MEAN_MOTION": 14.53690717, "ECCENTRICITY": 0.0076971, "INCLINATION": 86.1333, "RA_OF_ASC_NODE": 12.8456, "ARG_OF_PERICENTER": 326.4032, "MEAN_ANOMALY": 157.1185, "EPHEMERIS_TYPE": 0, "CLASSIFICATION_TYPE": "U", "NORAD_CAT_ID": 34926, "ELEMENT_SET_NO": 999, "REV_AT_EPOCH": 86313, "BSTAR": 0.0064845, "MEAN_MOTION_DOT": 0.00028341, "MEAN_MOTION_DDOT": 0}, "tle": {"line1": "1 34926U 97051NF  25336.87402868  .00028341  00000+0  64845-2 0  9994", "line2": "2 34926  86.1333  12.8456 0076971 326.4032 157.1185 14.53690717863138"}}, "geometry": {"type": "Point", "coordinates": [-170.23173474103913, 36.65041827032283]}}, {"type": "Feature", "properties": {"norad_id": 34985, "name": "IRIDIUM 33 DEB", "group": "iridium-33-debris", "lat": -40.56641634519807, "lon": 57.79367631626002, "alt_km": 753.0406306996483, "timestamp": "2025-12-03T06:58:43.626878+00:00", "meta": {"OBJECT_NAME": "IRIDIUM 33 DEB", "OBJECT_ID": "1997-051NR", "EPOCH": "2025-12-02T06:26:29.023872", "MEAN_MOTION": 14.41932039, "ECCENTRICITY": 0.0019855, "INCLINATION": 86.3697, "RA_OF_ASC_NODE": 61.3452, "ARG_OF_PERICENTER": 256.3727, "MEAN_ANOMALY": 159.0291, "EPHEMERIS_TYPE": 0, "CLASSIFICATION_TYPE": "U", "NORAD_CAT_ID": 34985, "ELEMENT_SET_NO": 999, "REV_AT_EPOCH": 87024, "BSTAR": 0.00095476, "MEAN_MOTION_DOT": 3.152e-05, "MEAN_MOTION_DDOT": 0}, "tle": {"line1": "1 34985U 97051NR  25336.26839148  .00003152  00000+0  95476-3 0  9995", "line2": "2 34985  86.3697  61.3452 0019855 256.3727 159.0291 14.41932039870245"}}, "geometry": {"type": "Point", "coordinates": [57.79367631626002, -40.56641634519807]}}, {"type": "Feature", "properties": {"norad_id": 35051, "name": "IRIDIUM 33 DEB", "group": "iridium-33-debris", "lat": 61.79182366611563, "lon": 19.862089761240057, "alt_km": 723.376465800653, "timestamp": "2025-12-03T06:58:43.626888+00:00", "meta": {"OBJECT_NAME": "IRIDIUM 33 DEB", "OBJECT_ID": "1997-051NX", "EPOCH": "2025-12-01T09:53:54.581856", "MEAN_MOTION": 14.47515304, "ECCENTRICITY": 0.00104451, "INCLINATION": 86.3252, "RA_OF_ASC_NODE": 13.7986, "ARG_OF_PERICENTER": 121.6547, "MEAN_ANOMALY": 238.5677, "EPHEMERIS_TYPE": 0, "CLASSIFICATION_TYPE": "U", "NORAD_CAT_ID": 35051, "ELEMENT_SET_NO": 999, "REV_AT_EPOCH": 86832, "BSTAR": 0.00073041402, "MEAN_MOTION_DOT": 2.705e-05, "MEAN_MOTION_DDOT": 0}, "tle": {"line1": "1 35051U 97051NX  25335.41243729  .00002705  00000+0  73041-3 0  9997", "line2": "2 35051  86.3252  13.7986 0010445 121.6547 238.5677 14.47515304868325"}}, "geometry": {"type": "Point", "coordinates": [19.862089761240057, 61.79182366611563]}}, {"type": "Feature", "properties": {"norad_id": 35052, "name": "IRIDIUM 33 DEB", "group": "iridium-33-debris", "lat": 19.972785922073527, "lon": -156.8089984971135, "alt_km": 757.325260917848, "timestamp": "2025-12-03T06:58:43.626898+00:00", "meta": {"OBJECT_NAME": "IRIDIUM 33 DEB", "OBJECT_ID": "1997-051NY", "EPOCH": "2025-12-02T10:12:18.686592", "MEAN_MOTION": 14.38472641, "ECCENTRICITY": 0.00135314, "INCLINATION": 86.332, "RA_OF_ASC_NODE": 24.8977, "ARG_OF_PERICENTER": 113.8149, "MEAN_ANOMALY": 246.4469, "EPHEMERIS_TYPE": 0, "CLASSIFICATION_TYPE": "U", "NORAD_CAT_ID": 35052, "ELEMENT_SET_NO": 999, "REV_AT_EPOCH": 87127, "BSTAR": 0.00026027257, "MEAN_MOTION_DOT": 8.15e-06, "MEAN_MOTION_DDOT": 0}, "tle": {"line1": "1 35052U 97051NY  25336.42521628  .00000815  00000+0  26027-3 0  9999", "line2": "2 35052  86.3320  24.8977 0013531 113.8149 246.4469 14.38472641871276"}}, "geometry": {"type": "Point", "coordinates": [-156.8089984971135, 19.972785922073527]}}, {"type": "Feature", "properties": {"norad_id": 35080, "name": "IRIDIUM 33 DEB", "group": "iridium-33-debris", "lat": -10.311251302840587, "lon": -122.42343424754462, "alt_km": 579.1661271808525, "timestamp": "2025-12-03T06:58:43.626908+00:00", "meta": {"OBJECT_NAME": "IRIDIUM 33 DEB", "OBJECT_ID": "1997-051PF", "EPOCH": "2025-12-01T23:22:16.261248", "MEAN_MOTION": 14.83809313, "ECCENTRICITY": 0.00642465, "INCLINATION": 86.2057, "RA_OF_ASC_NODE": 57.5123, "ARG_OF_PERICENTER": 215.9752, "MEAN_ANOMALY": 143.7139, "EPHEMERIS_TYPE": 0, "CLASSIFICATION_TYPE": "U", "NORAD_CAT_ID": 35080, "ELEMENT_SET_NO": 999, "REV_AT_EPOCH": 69528, "BSTAR": 0.0089496131, "MEAN_MOTION_DOT": 0.00077648, "MEAN_MOTION_DDOT": 0}, "tle": {"line1": "1 35080U 97051PF  25335.97379932  .00077648  00000+0  89496-2 0  9994", "line2": "2 35080  86.2057  57.5123 0064246 215.9752 143.7139 14.83809313695280"}}, "geometry": {"type": "Point", "coordinates": [-122.42343424754462, -10.311251302840587]}}, {"type": "Feature", "properties": {"norad_id": 35297, "name": "IRIDIUM 33 DEB", "group": "iridium-33-debris", "lat": -21.32603379934293, "lon": -111.79453275810604, "alt_km": 737.319440134841, "timestamp": "2025-12-03T06:58:43.626918+00:00", "meta": {"OBJECT_NAME": "IRIDIUM 33 DEB", "OBJECT_ID": "1997-051PM", "EPOCH": "2025-11-28T13:02:32.385696", "MEAN_MOTION": 14.4505178, "ECCENTRICITY": 0.00162447, "INCLINATION": 86.3859, "RA_OF_ASC_NODE": 68.817, "ARG_OF_PERICENTER": 185.2069, "MEAN_ANOMALY": 174.8967, "EPHEMERIS_TYPE": 0, "CLASSIFICATION_TYPE": "U", "NORAD_CAT_ID": 35297, "ELEMENT_SET_NO": 999, "REV_AT_EPOCH": 70221, "BSTAR": 0.00072341306, "MEAN_MOTION_DOT": 2.549e-05, "MEAN_MOTION_DDOT": 0}, "tle": {"line1": "1 35297U 97051PM  25332.54343039  .00002549  00000+0  72341-3 0  9993", "line2": "2 35297  86.3859  68.8170 0016244 185.2069 174.8967 14.45051780702214"}}, "geometry": {"type": "Point", "coordinates": [-111.79453275810604, -21.32603379934293]}}, {"type": "Feature", "properties": {"norad_id": 35299, "name": "IRIDIUM 33 DEB", "group": "iridium-33-debris", "lat": -79.01227069283847, "lon": 17.773296442058392, "alt_km": 798.7247356443713, "timestamp": "2025-12-03T06:58:43.626928+00:00", "meta": {"OBJECT_NAME": "IRIDIUM 33 DEB", "OBJECT_ID": "1997-051PP", "EPOCH": "2025-12-02T11:38:41.155584", "MEAN_MOTION": 14.40775501, "ECCENTRICITY": 0.00585815, "INCLINATION": 86.2895, "RA_OF_ASC_NODE": 37.6494, "ARG_OF_PERICENTER": 135.0483, "MEAN_ANOMALY": 289.2152, "EPHEMERIS_TYPE": 0, "CLASSIFICATION_TYPE": "U", "NORAD_CAT_ID": 35299, "ELEMENT_SET_NO": 999, "REV_AT_EPOCH": 86183, "BSTAR": 0.00106804, "MEAN_MOTION_DOT": 3.506e-05, "MEAN_MOTION_DDOT": 0}, "tle": {"line1": "1 35299U 97051PP  25336.48519856  .00003506  00000+0  10680-2 0  9995", "line2": "2 35299  86.2895  37.6494 0058581 135.0483 289.2152 14.40775501861831"}}, "geometry": {"type": "Point", "coordinates": [17.773296442058392, -79.01227069283847]}}]}